     2.10           NAVIGATION DATA                         RINEX VERSION / TYPE
SPIDER V4,0,0,3554                      2015 03 16 00:09    PGM / RUN BY / DATE 
   1.6764D-08  0.0000D+00 -1.1921D-07  5.9605D-08           ION ALPHA           
   1.2288D+05 -3.2768D+04 -1.9661D+05 -6.5536D+04           ION BETA            
   -2.793967723846D-09-5.329070518201D-15   319488     1834 DELTA-UTC: A0,A1,T,W
    16                                                      LEAP SECONDS        
                                                            END OF HEADER       
 5 15 03 01 13 59 44.0-2.726288512349D-04 5.002220859751D-12 0.000000000000D+00
    3.600000000000D+01 3.056250000000D+01 5.227003274655D-09 2.361371907955D+00
    1.588836312294D-06 4.032828612253D-03 6.772577762604D-06 5.153776012421D+03
    5.038400000000D+04-1.341104507446D-07 6.124245846850D-01-1.303851604462D-08
    9.467981363656D-01 2.430000000000D+02 4.133433076479D-01-8.274630758365D-09
    3.525146841099D-10 1.000000000000D+00 1.834000000000D+03 0.000000000000D+00
    2.000000000000D+00 0.000000000000D+00-1.071020960808D-08 3.600000000000D+01
    5.038400000000D+04 0.000000000000D+00
 7 15 03 01 14 00  0.0 4.442273639143D-04 3.069544618484D-12 0.000000000000D+00
    1.700000000000D+01 6.362500000000D+01 3.959093497485D-09-1.145519917377D+00
    3.146007657051D-06 8.049807860516D-03 1.097843050957D-05 5.153737174988D+03
    5.040000000000D+04 1.881271600723D-07 2.738341043467D+00-1.545995473862D-07
    9.713083691095D-01 1.740625000000D+02-2.755481728371D+00-7.704963778110D-09
   -1.717928715950D-10 1.000000000000D+00 1.834000000000D+03 0.000000000000D+00
    2.000000000000D+00 0.000000000000D+00-1.117587089539D-08 1.700000000000D+01
    5.040000000000D+04 0.000000000000D+00
 6 15 03 01 14 00  0.0 9.609805420041D-05 1.091393642128D-11 0.000000000000D+00
    3.300000000000D+01-4.600000000000D+01 4.382325613506D-09 1.877344554868D+00
   -2.557411789894D-06 3.045357298106D-04 1.076795160770D-05 5.153709562302D+03
    5.040000000000D+04 5.215406417847D-08-4.302846494828D-01-3.725290298462D-09
    9.621643191945D-01 1.724687500000D+02 2.733592630820D+00-7.872827723077D-09
    2.103659052510D-10 1.000000000000D+00 1.834000000000D+03 0.000000000000D+00
    2.000000000000D+00 0.000000000000D+00 4.656612873077D-09 3.300000000000D+01
    5.040000000000D+04 0.000000000000D+00
 9 15 03 01 13 59 44.0-1.009809784591D-04-1.068656274583D-11 0.000000000000D+00
    1.500000000000D+01-2.131250000000D+01 4.813772047640D-09 1.227679283873D+00
   -1.253560185432D-06 3.998522879556D-04 6.964430212975D-06 5.153639913559D+03
    5.038400000000D+04-2.235174179077D-08 1.662573908602D+00-2.235174179077D-08
    9.577269565777D-01 2.401875000000D+02 2.239683598189D+00-8.171769039222D-09
   -5.214502718509D-10 1.000000000000D+00 1.834000000000D+03 0.000000000000D+00
    2.000000000000D+00 0.000000000000D+00 4.656612873077D-10 1.500000000000D+01
    5.038400000000D+04 0.000000000000D+00
10 15 03 01 14 00  0.0-1.654215157032D-04-1.591615728103D-12 0.000000000000D+00
    2.400000000000D+01 3.059375000000D+01 5.230932131894D-09 2.724857374344D+00
    1.385807991028D-06 1.456646400038D-02 6.653368473053D-06 5.153661806107D+03
    5.040000000000D+04-2.980232238770D-08 6.280224674052D-01-2.142041921616D-07
    9.415773021198D-01 2.392500000000D+02 9.228210802078D-01-8.100694337543D-09
    3.135844917068D-10 1.000000000000D+00 1.834000000000D+03 0.000000000000D+00
    2.000000000000D+00 0.000000000000D+00-3.259629011154D-09 2.400000000000D+01
    5.040000000000D+04 0.000000000000D+00
13 15 03 01 14 00  0.0-9.266892448068D-05-3.524291969370D-12 0.000000000000D+00
    3.500000000000D+01-2.418750000000D+01 4.451256696569D-09-3.927936915367D-01
   -1.117587089539D-06 5.351250292733D-03 7.649883627892D-06 5.153682825089D+03
    5.040000000000D+04-7.636845111847D-08 1.776392839698D+00-4.842877388000D-08
    9.745229121509D-01 2.388750000000D+02 2.062561553922D+00-8.038192333970D-09
   -4.614477966403D-10 1.000000000000D+00 1.834000000000D+03 0.000000000000D+00
    2.000000000000D+00 0.000000000000D+00-1.164153218269D-08 3.500000000000D+01
    5.040000000000D+04 0.000000000000D+00
20 15 03 01 14 00  0.0 2.949330955744D-04 4.092726157978D-12 0.000000000000D+00
    9.800000000000D+01 3.362500000000D+01 5.590590212989D-09 2.645673647590D+00
    1.648440957069D-06 5.790856550448D-03 6.889924407005D-06 5.155764680862D+03
    5.040000000000D+04 7.450580596924D-09 5.484951114344D-01-1.061707735062D-07
    9.265898088019D-01 2.272187500000D+02 1.230962968811D+00-8.398206574611D-09
    3.471573306602D-10 1.000000000000D+00 1.834000000000D+03 0.000000000000D+00
    2.000000000000D+00 0.000000000000D+00-8.381903171539D-09 9.800000000000D+01
    5.040000000000D+04 0.000000000000D+00
28 15 03 01 14 00  0.0 4.229135811329D-04 2.728484105319D-12 0.000000000000D+00
    7.400000000000D+01 6.581250000000D+01 3.834088158072D-09 2.410059749759D+00
    3.190711140633D-06 1.966021826956D-02 3.572553396225D-06 5.153690282822D+03
    5.040000000000D+04 1.862645149231D-07-2.454047307458D+00-1.024454832077D-07
    9.885092750362D-01 3.205312500000D+02-1.668168102949D+00-7.679962443774D-09
    2.085801115159D-10 1.000000000000D+00 1.834000000000D+03 0.000000000000D+00
    2.000000000000D+00 0.000000000000D+00-1.117587089539D-08 7.400000000000D+01
    5.040000000000D+04 0.000000000000D+00
30 15 03 01 14 00  0.0-8.252123370767D-05 1.932676241267D-12 0.000000000000D+00
    4.300000000000D+01 6.528125000000D+01 4.227318939343D-09-1.019365823421D+00
    3.319233655930D-06 1.053020474501D-03 1.097284257412D-05 5.153773599625D+03
    5.040000000000D+04-4.656612873077D-08 2.788872930083D+00-6.891787052155D-08
    9.570365265385D-01 1.660625000000D+02 2.904660555388D+00-7.867470230849D-09
   -1.342913141800D-10 1.000000000000D+00 1.834000000000D+03 0.000000000000D+00
    2.000000000000D+00 0.000000000000D+00 3.259629011154D-09 4.300000000000D+01
    5.040000000000D+04 0.000000000000D+00
15 15 03 01 14 00  0.0-2.351207658648D-04-2.160049916711D-12 0.000000000000D+00
    1.040000000000D+02-2.478125000000D+01 5.492014398811D-09 8.055778499510D-01
   -1.028180122375D-06 7.098692934960D-03 6.215646862984D-06 5.153595273972D+03
    5.040000000000D+04-1.117587089539D-08 1.621064816474D+00 9.499490261078D-08
    9.336390638946D-01 2.421250000000D+02 3.829949038579D-01-8.572857090883D-09
   -4.943063180995D-10 1.000000000000D+00 1.834000000000D+03 0.000000000000D+00
    2.000000000000D+00 0.000000000000D+00-1.071020960808D-08 1.040000000000D+02
    5.040000000000D+04 0.000000000000D+00
20 15 03 01 13 59 44.0 2.949382178485D-04 4.092726157978D-12 0.000000000000D+00
    2.200000000000D+01 3.362500000000D+01 5.590590212989D-09 2.643343403417D+00
    1.648440957069D-06 5.790857365355D-03 6.889924407005D-06 5.155764686584D+03
    5.038400000000D+04 7.450580596924D-09 5.484952240791D-01-1.061707735062D-07
    9.265898000244D-01 2.272187500000D+02 1.230962250519D+00-8.398206574611D-09
    3.471573306602D-10 1.000000000000D+00 1.834000000000D+03 0.000000000000D+00
    2.000000000000D+00 0.000000000000D+00-8.381903171539D-09 2.200000000000D+01
    5.038400000000D+04 0.000000000000D+00
24 15 03 01 14 00  0.0-4.423875361681D-05-5.684341886081D-13 0.000000000000D+00
    1.120000000000D+02 4.334375000000D+01 4.421612853633D-09-3.243835693863D-01
    2.147629857063D-06 3.110780846328D-03 1.000240445137D-05 5.153687862396D+03
    5.040000000000D+04 4.470348358154D-08 2.698990052478D+00 3.539025783539D-08
    9.545136306840D-01 1.828125000000D+02 3.044988553938D-01-8.018191444137D-09
   -2.414386190974D-10 1.000000000000D+00 1.834000000000D+03 0.000000000000D+00
    2.800000000000D+00 0.000000000000D+00 2.328306436539D-09 1.120000000000D+02
    5.040000000000D+04 0.000000000000D+00
 5 15 03 01 16 00  0.0-2.725925296545D-04 5.002220859751D-12 0.000000000000D+00
    3.800000000000D+01 3.125000000000D+01 5.212716924774D-09-2.869318117931D+00
    1.557171344757D-06 4.033062490635D-03 6.906688213348D-06 5.153775510788D+03
    5.760000000000D+04-7.823109626770D-08 6.123649678475D-01-8.940696716309D-08
    9.468008354495D-01 2.408125000000D+02 4.133053449237D-01-8.254629868532D-09
    3.718012009379D-10 1.000000000000D+00 1.834000000000D+03 0.000000000000D+00
    2.000000000000D+00 0.000000000000D+00-1.071020960808D-08 3.800000000000D+01
    5.760000000000D+04 0.000000000000D+00
15 15 03 01 16 00  0.0-2.351365983486D-04-2.160049916711D-12 0.000000000000D+00
    1.050000000000D+02-2.675000000000D+01 5.554517290562D-09 1.855785299992D+00
   -1.231208443642D-06 7.098624715582D-03 6.597489118576D-06 5.153595615387D+03
    5.760000000000D+04-1.173466444016D-07 1.621002913095D+00 1.005828380585D-07
    9.336356026304D-01 2.413437500000D+02 3.830237628429D-01-8.537498707994D-09
   -4.507330619852D-10 1.000000000000D+00 1.834000000000D+03 0.000000000000D+00
    2.000000000000D+00 0.000000000000D+00-1.071020960808D-08 1.050000000000D+02
    5.760000000000D+04 0.000000000000D+00
10 15 03 01 16 00  0.0-1.654331572354D-04-1.591615728103D-12 0.000000000000D+00
    2.900000000000D+01 3.112500000000D+01 5.283077086915D-09-2.508144468799D+00
    1.380220055580D-06 1.456651126500D-02 6.506219506264D-06 5.153661695480D+03
    5.760000000000D+04 2.197921276093D-07 6.279627964396D-01-1.545995473862D-07
    9.415797685996D-01 2.413125000000D+02 9.228315517754D-01-8.204270152135D-09
    4.853773494240D-10 1.000000000000D+00 1.834000000000D+03 0.000000000000D+00
    2.000000000000D+00 0.000000000000D+00-3.259629011154D-09 2.900000000000D+01
    5.760000000000D+04 0.000000000000D+00
